# From MPEC 2022-F14
C/2021 A2 (NEOWISE),e,106.9849,125.2046,338.7882,234.6367,0.0002742,0.99398186,0.0000,01/22.4590/2021,2000,g 13.5,4.0
# From MPEC 2022-ED3
C/2021 A4 (NEOWISE),e,111.5348,307.1124,204.7062,42.48817,0.0035588,0.97299966,0.0000,03/19.7864/2021,2000,g 16.0,4.0
# From MPEC 2021-BE3
P/2021 A5 (PANSTARRS),e,18.1841,328.7635,61.3278,3.047668,0.1852476,0.13990646,155.6851,03/03.0/2023,2000,g 15.0,4.0
# From MPEC 2023-BF4
C/2021 A6 (PANSTARRS),e,75.6056,164.0762,351.6441,9390,0.0000011,0.99915584,0.0000,05/03.3917/2021,2000,g  7.0,4.0
# From MPEC 2022-M88
C/2021 A7 (NEOWISE),e,78.1520,154.5074,356.0146,2473,0.0000080,0.99920465,0.0000,07/15.2086/2021,2000,g 10.0,4.0
# From MPEC 2023-D41
C/2021 A9 (PANSTARRS),h,12/01.5479/2023,158.0192,314.8415,211.4575,1.002384,7.760163,2000,6.0,4.0
# From MPEC 2021-N06
C/2021 A10 (NEOWISE),e,151.9188,188.6705,82.3554,88.01785,0.0011936,0.98565935,0.0000,03/15.1146/2021,2000,g 19.0,4.0
# From MPEC 2022-L66
C/2021 B2 (PANSTARRS),e,38.0856,120.5287,334.9736,359.6965,0.0001445,0.99301641,0.0000,05/04.3448/2021,2000,g 14.0,4.0
# From MPEC 2021-N06
C/2021 B3 (NEOWISE),e,119.4812,67.2852,293.5415,34.53647,0.0048561,0.93743541,3.5079,03/03.0/2023,2000,g 13.5,4.0
# From MPEC 2022-ED3
C/2021 C1 (Rankin),e,143.0453,186.8985,336.2463,11302,0.0000008,0.99969225,0.0000,12/06.9611/2020,2000,g 11.5,4.0
# From MPEC 2021-U31
P/2021 C2 (PANSTARRS),e,21.9344,66.4624,78.7293,9.534281,0.0334790,0.48733988,24.6867,03/03.0/2023,2000,g 12.0,4.0
# From MPEC 2021-N06
C/2021 C3 (Catalina),e,122.1648,181.9262,357.0825,62.10129,0.0020140,0.96337381,1.5080,03/03.0/2023,2000,g 14.0,4.0
# From MPEC 2022-M88
C/2021 C4 (ATLAS),h,01/17.0567/2021,132.8540,194.2780,320.2035,1.000013,4.502178,2000,9.0,4.0
# From MPEC 2023-D41
C/2021 C5 (PANSTARRS),e,50.7815,323.6826,270.9225,2452,0.0000081,0.99867779,0.0000,02/11.0779/2023,2000,g  9.0,4.0
# From MPEC 2022-YB4
C/2021 C6 (Lemmon),h,11/13.2844/2021,164.6255,332.1612,203.5814,1.001094,3.272235,2000,12.0,4.0
# From MPEC 2022-F14
C/2021 D1 (SWAN),e,31.4327,311.2430,72.2790,100.0126,0.0009854,0.99097881,0.0000,02/27.7355/2021,2000,g 13.0,4.0
# From MPEC 2022-YN2
C/2021 D2 (ZTF),h,02/03.9829/2022,83.8180,305.6789,125.0272,1.001712,2.946253,2000,9.0,4.0
# From MPEC 2022-UY9
A/2021 E2,e,167.4883,190.8216,342.3961,226.7051,0.0002887,0.98992011,0.0000,12/10.4024/2020,2000,g 15.0,2.0
# From MPEC 2023-D72
C/2021 E3 (ZTF),h,06/11.9068/2022,112.5517,104.4746,228.8514,1.000889,1.777383,2000,8.5,4.0
# From MPEC 2022-UY9
A/2021 E4,e,116.3610,171.1713,48.2622,601.2260,0.0000669,0.99222269,0.0000,04/25.1849/2022,2000,g 13.5,2.0
# From MPEC 2022-QD9
C/2021 F1 (Lemmon-PANSTARRS),e,107.3263,203.4530,146.8221,229.3646,0.0002837,0.99565929,0.0000,04/06.8479/2022,2000,g 13.5,4.0
# From MPEC 2021-J72
C/2021 G1 (Leonard),e,131.5496,270.6993,107.4537,74.20053,0.0015420,0.95386604,0.9082,03/03.0/2023,2000,g 14.0,4.0
# From MPEC 2023-D72
C/2021 G2 (ATLAS),e,48.4735,221.0976,343.3328,6107,0.0000021,0.99918443,0.0000,09/09.6877/2024,2000,g  5.5,4.0
# From MPEC 2022-X67
C/2021 G3 (PANSTARRS),h,10/18.2186/2021,102.8755,147.4091,10.6050,1.000307,5.180319,2000,10.5,4.0
# From MPEC 2021-Y10
P/2021 HS (PANSTARRS),e,12.1641,262.3838,46.1143,4.194651,0.1147256,0.80989920,65.8215,03/03.0/2023,2000,g 22.0,4.0
# From MPEC 2022-C56
C/2021 J1 (Maury-Attard),e,92.7213,88.3575,147.3266,26.39494,0.0072681,0.93404766,5.3901,03/03.0/2023,2000,g 15.5,4.0
# From MPEC 2023-C45
C/2021 J2 (PANSTARRS),e,156.2131,23.3349,172.0292,117.7561,0.0007713,0.96004121,0.4063,03/03.0/2023,2000,g 12.0,4.0
# From MPEC 2021-S45
P/2021 J3 (ATLAS),e,14.5340,111.1594,126.0296,8.933691,0.0369112,0.44934203,49.3762,03/03.0/2023,2000,g  7.0,4.0
# From MPEC 2022-O08
C/2021 K1 (ATLAS),e,16.2755,140.9049,184.2808,12.67529,0.0218407,0.80288285,14.5834,03/03.0/2023,2000,g 11.0,4.0
# From MPEC 2022-O01
C/2021 K2 (MASTER),h,09/09.4738/2021,100.8572,282.2512,343.3612,1.001093,5.467884,2000,8.0,4.0
# From MPEC 2022-L66
C/2021 K3 (Catalina),h,02/03.1205/2022,134.7812,114.4585,182.0482,1.003278,5.229977,2000,10.0,4.0
# From MPEC 2021-W31
P/2021 L2 (Leonard),e,21.0687,266.6572,51.5126,4.049206,0.1209621,0.52118185,70.9674,03/03.0/2023,2000,g 17.0,4.0
# From MPEC 2022-UE6
C/2021 L3 (Borisov),h,02/14.0047/2022,78.5781,344.9755,91.6078,1.003184,8.457928,2000,6.0,4.0
# From MPEC 2022-TA0
P/2021 N1 (ZTF),e,11.4988,301.1633,21.2225,2.977861,0.1917995,0.67645442,121.7062,03/03.0/2023,2000,g 19.0,4.0
# From MPEC 2023-D41
P/2021 N2 (Fuls),e,13.0615,221.7367,177.4329,6.937133,0.0539429,0.45256168,25.5800,03/03.0/2023,2000,g  9.5,4.0
# From MPEC 2022-YB4
C/2021 N3 (PANSTARRS),e,26.7406,337.4932,304.7636,153.3209,0.0005192,0.96271558,0.4804,03/03.0/2023,2000,g  8.5,4.0
# From MPEC 2022-A21
C/2021 O1 (Nishimura),e,27.5866,41.6187,74.4049,2340,0.0000087,0.99966429,0.0000,08/13.9912/2021,2000,g 10.5,4.0
# From MPEC 2022-L66
C/2021 O3 (PANSTARRS),h,04/21.0483/2022,56.7940,189.0173,299.9724,1.000069,0.287123,2000,10.5,4.0
# From MPEC 2022-CN4
C/2021 P1 (PANSTARRS),e,51.6366,359.6766,40.4560,2539,0.0000077,0.99827698,0.0000,06/02.3413/2022,2000,g 11.0,4.0
# From MPEC 2022-WQ9
C/2021 P2 (PANSTARRS),e,150.0635,32.0795,76.6907,2491,0.0000079,0.99796491,0.0000,01/22.7078/2023,2000,g  9.0,4.0
# From MPEC 2021-W31
P/2021 P3 (PANSTARRS),e,27.1616,358.2396,334.0994,4.412733,0.1063268,0.33917071,68.2374,03/03.0/2023,2000,g 14.0,4.0
# From MPEC 2023-A50
C/2021 P4 (ATLAS),e,56.3107,348.0924,175.8123,313.8863,0.0001772,0.99655813,0.0000,07/30.3598/2022,2000,g  9.5,4.0
# From MPEC 2023-C66
P/2021 PE20 (ATLAS),e,20.0112,99.6310,210.4645,3.745397,0.1359744,0.67036987,86.2049,03/03.0/2023,2000,g 17.0,4.0
# From MPEC 2023-D41
C/2021 Q3 (ATLAS),e,77.7649,307.9115,114.0988,75.58187,0.0015000,0.93113751,0.6012,03/03.0/2023,2000,g  8.0,4.0
# From MPEC 2023-BF4
C/2021 Q4 (Fuls),h,06/10.3442/2023,71.4737,183.3334,146.9892,1.003040,7.564919,2000,6.0,4.0
# From MPEC 2022-C56
P/2021 Q5 (ATLAS),e,10.7377,239.7521,180.9192,3.286553,0.1654219,0.62450076,90.8918,03/03.0/2023,2000,g 15.0,4.0
# From MPEC 2023-CD7
C/2021 Q6 (PANSTARRS),e,161.8473,133.5350,140.9351,29435,0.0000002,0.99970412,0.0000,03/23.5326/2024,2000,g  6.0,4.0
# From MPEC 2023-D41
C/2021 QM45 (PANSTARRS),e,22.8222,354.5897,72.8169,360.7637,0.0001438,0.99231244,0.0000,08/13.4815/2022,2000,g 11.0,4.0
# From MPEC 2022-X67
P/2021 R1 (PANSTARRS),e,5.5191,143.3519,220.3562,8.347443,0.0408671,0.41466294,18.0210,03/03.0/2023,2000,g 11.0,4.0
# From MPEC 2022-X67
C/2021 R2 (PANSTARRS),e,134.4814,16.2955,32.4314,2495,0.0000079,0.99706828,0.0000,12/26.7339/2021,2000,g  7.5,4.0
# From MPEC 2021-W31
P/2021 R3 (PANSTARRS),e,19.9281,304.2037,2.7965,3.772822,0.1344945,0.33114122,86.8689,03/03.0/2023,2000,g 16.0,4.0
# From MPEC 2021-W31
P/2021 R4 (Wierzchos),e,21.0367,321.2612,56.6780,5.621300,0.0739518,0.58602699,37.3421,03/03.0/2023,2000,g 16.0,4.0
# From MPEC 2022-Y15
P/2021 R5 (Rankin),e,7.8546,219.9580,167.4284,4.793700,0.0939070,0.30671854,38.9335,03/03.0/2023,2000,g 12.0,4.0
# From MPEC 2021-W31
P/2021 R6 (Groeller),e,34.9262,176.1156,220.7828,6.279132,0.0626404,0.59340462,30.5019,03/03.0/2023,2000,g 14.5,4.0
# From MPEC 2022-X67
C/2021 R7 (PANSTARRS),e,158.8472,170.1441,140.2752,868.0676,0.0000385,0.99349045,0.0000,04/16.5428/2021,2000,g 10.5,4.0
# From MPEC 2021-Y10
P/2021 R8 (Sheppard),e,2.2034,167.0266,190.8210,3.017643,0.1880193,0.29350460,96.1708,03/03.0/2023,2000,g 18.5,4.0
# From MPEC 2023-D72
C/2021 S1 (ATLAS),h,03/01.0582/2022,52.0747,299.8778,148.1926,1.001881,6.119320,2000,7.0,4.0
# From MPEC 2023-D72
C/2021 S3 (PANSTARRS),h,02/14.7375/2024,58.5334,215.6224,6.8732,1.000041,1.319939,2000,5.5,4.0
# From MPEC 2023-D72
C/2021 S4 (Tsuchinshan),e,17.4800,5.4968,72.7966,164.9832,0.0004651,0.95944733,359.8584,03/03.0/2023,2000,g  6.5,4.0
# From MPEC 2022-OB6
C/2021 T1 (Lemmon),e,140.3535,56.8308,51.5342,1305,0.0000209,0.99765522,0.0000,10/14.0958/2021,2000,g 12.5,4.0
# From MPEC 2023-A50
C/2021 T2 (Fuls),h,06/07.9068/2022,117.5343,223.2320,263.5985,1.000328,1.247738,2000,12.0,4.0
# From MPEC 2023-D72
C/2021 T4 (Lemmon),h,07/31.5176/2023,160.7761,257.8747,329.8038,1.000029,1.483298,2000,7.5,4.0
# From MPEC 2022-ED3
P/2021 U1 (Wierzchos),e,30.5547,246.7771,145.1040,8.521449,0.0396218,0.71295678,20.5201,03/03.0/2023,2000,g 14.5,4.0
# From MPEC 2022-L66
P/2021 U3 (Attard-Maury),e,69.9586,75.0988,335.2367,4.192570,0.1148110,0.54985456,56.7307,03/03.0/2023,2000,g 15.5,4.0
# From MPEC 2021-W31
C/2021 U4 (Leonard),e,152.8806,241.8100,237.2945,44.77418,0.0032897,0.96006726,1.4346,03/03.0/2023,2000,g 17.0,4.0
# From MPEC 2022-WQ9
C/2021 U5 (Catalina),e,39.0502,182.7542,321.4469,216.8303,0.0003087,0.98910387,0.0000,01/26.5776/2022,2000,g 13.0,4.0
# From MPEC 2022-CN4
C/2021 V1 (Rankin),e,71.4540,207.6537,195.1264,607.5278,0.0000658,0.99503926,0.0000,04/30.4240/2022,2000,g 13.0,4.0
# From MPEC 2023-D72
P/2021 V2 (Fuls),e,12.6941,232.2825,259.8285,9.058532,0.0361508,0.61399842,1.4676,03/03.0/2023,2000,g 10.0,4.0
# From MPEC 2023-D72
C/2021 X1 (Maury-Attard),h,05/27.4763/2023,140.1213,10.5851,334.6285,1.000232,3.233612,2000,7.0,4.0
# From MPEC 2023-A50
A/2021 X2,h,07/08.0756/2022,137.1608,228.8196,193.2826,1.001040,2.994304,2000,16.0,2.0
# From MPEC 2023-D72
C/2021 Y1 (ATLAS),h,04/30.7034/2023,77.1905,244.7702,245.8158,1.000866,2.032404,2000,7.0,4.0
# From MPEC 2022-YN2
C/2022 A1 (Sarneczky),e,116.5064,285.5266,201.2230,353.3103,0.0001484,0.99645377,0.0000,01/31.1450/2022,2000,g 18.0,4.0
# From MPEC 2023-D72
C/2022 A2 (PANSTARRS),h,02/18.2673/2023,108.1470,171.5795,88.3672,1.000321,1.735290,2000,9.5,4.0
# From MPEC 2023-D72
C/2022 A3 (Lemmon-ATLAS),e,88.3478,325.4831,234.8467,924.9030,0.0000350,0.99599585,0.0000,09/28.8407/2023,2000,g  8.0,4.0
# From MPEC 2022-K19
P/2022 B1 (Wierzchos),e,10.9901,148.8448,325.4736,5.466119,0.0771233,0.65307777,28.5857,03/03.0/2023,2000,g 16.5,4.0
# From MPEC 2022-YB4
A/2022 B3,e,132.0509,286.1825,150.6844,882.6316,0.0000376,0.99580972,0.0000,01/17.5455/2022,2000,g 16.5,2.0
# From MPEC 2022-GA9
